NORAD_CAT_ID,OBJECT_NAME,OBJECT_TYPE,EPOCH,MEAN_MOTION,ECCENTRICITY,INCLINATION,RA_OF_ASC_NODE,ARG_OF_PERICENTER,MEAN_ANOMALY,BSTAR,MEAN_MOTION_DOT,MEAN_MOTION_DDOT,TLE_LINE0,TLE_LINE1,TLE_LINE2,SEMIMAJOR_AXIS,PERIOD,APOGEE,PERIGEE,DECAYED
52690.0,STARLINK-4035,PAYLOAD,2022-07-09 14:00:01,15.59169477,0.0001553,53.2176,40.0592,34.3495,330.6638,-0.014614,-0.01060854,0.0,0 STARLINK-4035,1 52690U 22053AL  22190.58334491 -.01060854  00000-0 -14614-1 0  9998,2 52690  53.2176  40.0592 0001553  34.3495 330.6638 15.59169477  1307,6768.196,92.357,391.11300000000006,389.01,0.0
52690.0,STARLINK-4035,PAYLOAD,2022-07-09 20:00:01,15.58601067,0.0001839,53.2174,38.8501,27.537,301.2649,-0.014968,-0.01063108,0.0,0 STARLINK-4035,1 52690U 22053AL  22190.83334491 -.01063108  00000-0 -14968-1 0  9993,2 52690  53.2174  38.8501 0001839  27.5370 301.2649 15.58601067  8569,6769.842,92.391,392.952,390.462,0.0
52690.0,STARLINK-4035,PAYLOAD,2022-07-10 14:00:01,15.56891617,0.0001631999999999,53.2177,35.2226,43.506,173.5861,-0.015924,-0.01060378,0.0,0 STARLINK-4035,1 52690U 22053AL  22191.58334491 -.01060378  00000-0 -15924-1 0  9995,2 52690  53.2177  35.2226 0001632  43.5060 173.5861 15.56891617  8681,6774.797,92.492,397.767,395.556,0.0
52690.0,STARLINK-4035,PAYLOAD,2022-07-10 22:00:00,15.56133298,0.0001631999999999,53.2175,33.616,38.9172,247.0413,-0.01643,-0.01063155,0.0,0 STARLINK-4035,1 52690U 22053AL  22191.91667824 -.01063155  00000-0 -16430-1 0  9990,2 52690  53.2175  33.6160 0001632  38.9172 247.0413 15.56133298  1306,6776.996999999999,92.537,399.968,397.756,0.0
52690.0,STARLINK-4035,PAYLOAD,2022-07-11 06:00:00,15.55374241,0.0001436,53.2174,32.0079,38.7214,315.1931,-0.0169199999999999,-0.0106418,0.0,0 STARLINK-4035,1 52690U 22053AL  22192.25001157 -.01064180  00000-0 -16920-1 0  9992,2 52690  53.2174  32.0079 0001436  38.7214 315.1931 15.55374241  8789,6779.2019999999975,92.582,402.04,400.093,0.0
52690.0,STARLINK-4035,PAYLOAD,2022-07-11 14:00:01,15.54612114,0.0001721999999999,53.2175,30.4023,32.4793,28.4787,-0.017312,-0.01059127,0.0,0 STARLINK-4035,1 52690U 22053AL  22192.58334491 -.01059127  00000-0 -17312-1 0  9999,2 52690  53.2175  30.4023 0001722  32.4793  28.4787 15.54612114  1309,6781.417,92.628,404.45,402.115,0.0
52690.0,STARLINK-4035,PAYLOAD,2022-07-11 22:00:00,15.53852859,0.0001987,53.2175,28.8013,31.1285,95.9579,-0.017804,-0.01059279,0.0,0 STARLINK-4035,1 52690U 22053AL  22192.91667824 -.01059279  00000-0 -17804-1 0  9999,2 52690  53.2175  28.8013 0001987  31.1285  95.9579 15.53852859  1303,6783.626,92.673,406.839,404.143,0.0
52690.0,STARLINK-4035,PAYLOAD,2022-07-12 06:00:00,15.53095681,0.0001689,53.2175,27.1986,41.0305,151.2733,-0.018379,-0.01063124,0.0,0 STARLINK-4035,1 52690U 22053AL  22193.25001157 -.01063124  00000-0 -18379-1 0  9990,2 52690  53.2175  27.1986 0001689  41.0305 151.2733 15.53095681  8943,6785.831,92.718,408.842,406.55,0.0
52690.0,STARLINK-4035,PAYLOAD,2022-07-12 14:00:01,15.52334438,0.0001515,53.2176,25.5987,47.6924,208.9163,-0.018819,-0.01059171,0.0,0 STARLINK-4035,1 52690U 22053AL  22193.58334491 -.01059171  00000-0 -18819-1 0  9992,2 52690  53.2176  25.5987 0001515  47.6924 208.9163 15.52334438  1309,6788.049,92.764,410.943,408.886,0.0
52690.0,STARLINK-4035,PAYLOAD,2022-07-12 22:00:00,15.51575548,0.0001909,53.2176,24.003,29.0272,290.9721,-0.019373,-0.01060785,0.0,0 STARLINK-4035,1 52690U 22053AL  22193.91667824 -.01060785  00000-0 -19373-1 0  9997,2 52690  53.2176  24.0030 0001909  29.0272 290.9721 15.51575548  1308,6790.262,92.809,413.424,410.831,0.0
52690.0,STARLINK-4035,PAYLOAD,2022-07-13 04:00:00,15.50980197,0.0001771999999999,53.2173,22.8047,39.9992,236.9517,-0.018667,-0.0100559,0.0,0 STARLINK-4035,1 52690U 22053AL  22194.16667824 -.01005590  00000-0 -18667-1 0  9993,2 52690  53.2173  22.8047 0001772  39.9992 236.9517 15.50980197  9081,6792.0,92.845,415.068,412.661,0.0
52690.0,STARLINK-4035,PAYLOAD,2022-07-13 14:00:01,15.50008017,0.000173,53.2177,20.811,39.9335,44.13399999999999,-0.0033675,-0.00187889,0.0,0 STARLINK-4035,1 52690U 22053AL  22194.58334491 -.00187889  00000-0 -33675-2 0  9998,2 52690  53.2177  20.8110 0001730  39.9335  44.1340 15.50008017  9141,6794.84,92.903,417.88,415.529,0.0
52690.0,STARLINK-4035,PAYLOAD,2022-07-13 22:00:00,15.49883678,0.0001883,53.2176,19.2196,34.7715,110.2722,6.4594e-05,3.216e-05,0.0,0 STARLINK-4035,1 52690U 22053AL  22194.91667824  .00003216  00000-0  64594-4 0  9999,2 52690  53.2176  19.2196 0001883  34.7715 110.2722 15.49883678  9208,6795.203,92.91,418.348,415.789,0.0
52690.0,STARLINK-4035,PAYLOAD,2022-07-14 14:00:01,15.49926455,0.0001912,53.215,16.0258,48.9778,217.7673,0.00017478,9.494e-05,0.0,0 STARLINK-4035,1 52690U 22053AL  22195.58334491  .00009494  00000-0  17478-3 0  9996,2 52690  53.2150  16.0258 0001912  48.9778 217.7673 15.49926455  9303,6795.078,92.908,418.242,415.644,0.0
52690.0,STARLINK-4035,PAYLOAD,2022-07-14 22:00:00,15.49889474,0.0002078,53.2152,14.4355,43.3659,284.3147,0.00092237,0.00052258,0.0,0 STARLINK-4035,1 52690U 22053AL  22195.91667824  .00052258  00000-0  92237-3 0  9994,2 52690  53.2152  14.4355 0002078  43.3659 284.3147 15.49889474  9356,6795.186,92.91,418.463,415.639,0.0
52690.0,STARLINK-4035,PAYLOAD,2022-07-15 06:00:00,15.49978555,0.0001763,53.2162,12.8427,37.44300000000001,351.1704,-0.0032053,-0.00178879,0.0,0 STARLINK-4035,1 52690U 22053AL  22196.25001157 -.00178879  00000-0 -32053-2 0  9992,2 52690  53.2162  12.8427 0001763  37.4430 351.1704 15.49978555  9407,6794.926,92.905,417.989,415.593,0.0
52690.0,STARLINK-4035,PAYLOAD,2022-07-15 14:00:01,15.49998878,0.0001733,53.2168,11.2515,33.8055,55.7508,-0.019501,-0.01013515,0.0,0 STARLINK-4035,1 52690U 22053AL  22196.58334491 -.01013515  00000-0 -19501-1 0  9996,2 52690  53.2168  11.2515 0001733  33.8055  55.7508 15.49998878  9458,6794.866,92.903,417.909,415.554,0.0
52690.0,STARLINK-4035,PAYLOAD,2022-07-15 22:00:00,15.49268636,0.000173,53.2174,9.6626,39.6263,110.5394,-0.020826,-0.01050934,0.0,0 STARLINK-4035,1 52690U 22053AL  22196.91667824 -.01050934  00000-0 -20826-1 0  9990,2 52690  53.2174   9.6626 0001730  39.6263 110.5394 15.49268636  1302,6797.001,92.947,420.042,417.69,0.0
52690.0,STARLINK-4035,PAYLOAD,2022-07-16 06:00:00,15.48512879,0.0001766,53.2175,8.0704,37.4097,172.4696,-0.02152,-0.01056742,0.0,0 STARLINK-4035,1 52690U 22053AL  22197.25001157 -.01056742  00000-0 -21520-1 0  9994,2 52690  53.2175   8.0704 0001766  37.4097 172.4696 15.48512879  9561,6799.2130000000025,92.992,422.278,419.877,0.0
52690.0,STARLINK-4035,PAYLOAD,2022-07-16 14:00:01,15.47753993,0.0001767,53.2176,6.4824,35.7768,232.903,-0.02212,-0.01057514,0.0,0 STARLINK-4035,1 52690U 22053AL  22197.58334491 -.01057514  00000-0 -22120-1 0  9995,2 52690  53.2176   6.4824 0001767  35.7768 232.9030 15.47753993  1305,6801.435,93.038,424.502,422.098,0.0
52690.0,STARLINK-4035,PAYLOAD,2022-07-16 22:00:00,15.46993283,0.0001726,53.2175,4.8972,32.2161,294.3517,-0.02266,-0.01055107,0.0,0 STARLINK-4035,1 52690U 22053AL  22197.91667824 -.01055107  00000-0 -22660-1 0  9996,2 52690  53.2175   4.8972 0001726  32.2161 294.3517 15.46993283  1303,6803.6640000000025,93.084,426.704,424.355,0.0
52690.0,STARLINK-4035,PAYLOAD,2022-07-17 06:00:00,15.46234414,0.0001669,53.2175,3.3104,30.7587,352.7862,-0.023312,-0.01056973,0.0,0 STARLINK-4035,1 52690U 22053AL  22198.25001157 -.01056973  00000-0 -23312-1 0  9992,2 52690  53.2175   3.3104 0001669  30.7587 352.7862 15.46234414  9714,6805.89,93.129,428.891,426.62,0.0
52690.0,STARLINK-4035,PAYLOAD,2022-07-17 14:00:01,15.45476117,0.000178,53.2177,1.7280000000000002,33.0861,46.521,-0.023971,-0.01058572,0.0,0 STARLINK-4035,1 52690U 22053AL  22198.58334491 -.01058572  00000-0 -23971-1 0  9996,2 52690  53.2177   1.7280 0001780  33.0861  46.5210 15.45476117  1307,6808.116,93.175,431.193,428.77,0.0
52690.0,STARLINK-4035,PAYLOAD,2022-07-17 22:00:00,15.4471176,0.000192,53.2174,0.148,33.3666,101.3918,-0.024387,-0.01049887,0.0,0 STARLINK-4035,1 52690U 22053AL  22198.91667824 -.01049887  00000-0 -24387-1 0  9993,2 52690  53.2174   0.1480 0001920  33.3666 101.3918 15.44711760  1301,6810.361999999999,93.221,433.535,430.92,0.0
52690.0,STARLINK-4035,PAYLOAD,2022-07-18 06:00:00,15.43954292,0.000161,53.2174,358.5667,45.4075,143.5893,-0.025115,-0.01053129,0.0,0 STARLINK-4035,1 52690U 22053AL  22199.25001157 -.01053129  00000-0 -25115-1 0  9996,2 52690  53.2174 358.5667 0001610  45.4075 143.5893 15.43954292  9870,6812.589,93.267,435.551,433.358,0.0
52690.0,STARLINK-4035,PAYLOAD,2022-07-18 14:00:01,15.43195652,0.0001720999999999,53.2176,356.99,41.1916,201.1294,-0.025805,-0.01054367,0.0,0 STARLINK-4035,1 52690U 22053AL  22199.58334491 -.01054367  00000-0 -25805-1 0  9993,2 52690  53.2176 356.9900 0001721  41.1916 201.1294 15.43195652  1307,6814.821999999999,93.313,437.86,435.514,0.0
52690.0,STARLINK-4035,PAYLOAD,2022-07-18 22:00:00,15.42435661,0.0001672,53.2173,355.4153,36.466,258.2669,-0.026432,-0.01067389,0.0,0 STARLINK-4035,1 52690U 22053AL  22199.91667824 -.01067389  00000-0 -26432-1 0  9994,2 52690  53.2173 355.4153 0001672  36.4660 258.2669 15.42435661  1301,6817.06,93.359,440.065,437.785,0.0
52690.0,STARLINK-4035,PAYLOAD,2022-07-19 06:00:00,15.41675771,0.0001309,53.2174,353.8395,48.3487,297.8857,-0.027134,-0.01067925,0.0,0 STARLINK-4035,1 52690U 22053AL  22200.25001157 -.01067925  00000-0 -27134-1 0  9991,2 52690  53.2174 353.8395 0001309  48.3487 297.8857 15.41675771 10022,6819.3,93.405,442.0580000000001,440.273,0.0
52690.0,STARLINK-4035,PAYLOAD,2022-07-19 14:00:01,15.40918859,0.0001631,53.2175,352.2683,36.3268,0.4932,-0.02794,-0.01071859,0.0,0 STARLINK-4035,1 52690U 22053AL  22200.58334491 -.01071859  00000-0 -27940-1 0  9993,2 52690  53.2175 352.2683 0001631  36.3268   0.4932 15.40918859  1307,6821.533,93.451,444.511,442.286,0.0
